0 FENGYUN 1C DEB
1 31987U 99025CPQ 13282.79934613  .00001352  00000-0  57330-3 0  6732
2 31987 098.9700 017.3141 0070236 139.6144 348.6659 14.25790829330909
0 FENGYUN 1C DEB
1 31987U 99025CPQ 13285.75196564  .00001440  00000-0  60903-3 0  6745
2 31987 098.9704 020.3349 0070162 131.3068 023.8159 14.25798602331320
0 FENGYUN 1C DEB
1 31987U 99025CPQ 13288.06180675  .00001712  00000-0  72040-3 0  6756
2 31987 098.9707 022.6984 0070148 124.7132 359.8805 14.25806184331656
0 FENGYUN 1C DEB
1 31987U 99025CPQ 13290.50492019  .00001678  00000-0  70624-3 0  6764
2 31987 098.9702 025.1985 0070089 117.7541 300.0775 14.25816713332003
0 FENGYUN 1C DEB
1 31987U 99025CPQ 13292.76868947  .00001835  00000-0  77059-3 0  6776
2 31987 098.9699 027.5147 0070045 111.2944 039.8163 14.25823245332323
0 FENGYUN 1C DEB
1 31987U 99025CPQ 13295.07895955  .00001851  00000-0  77735-3 0  6782
2 31987 098.9698 029.8785 0069861 104.6962 018.3096 14.25832201332650
